[{"OBJECT_NAME":"STARLINK-31308","OBJECT_ID":"2024-044B","EPOCH":"2026-03-09T00:19:45.718176","MEAN_MOTION":15.2756777,"ECCENTRICITY":0.00014824,"INCLINATION":43.0032,"RA_OF_ASC_NODE":64.0106,"ARG_OF_PERICENTER":280.6696,"MEAN_ANOMALY":79.3989,"EPHEMERIS_TYPE":0,"CLASSIFICATION_TYPE":"U","NORAD_CAT_ID":59153,"ELEMENT_SET_NO":999,"REV_AT_EPOCH":11404,"BSTAR":3.592067e-5,"MEAN_MOTION_DOT":7.26e-6,"MEAN_MOTION_DDOT":0},{"OBJECT_NAME":"COSMOS 1238","OBJECT_ID":"1981-003A","EPOCH":"2026-03-09T22:03:18.626112","MEAN_MOTION":14.12425394,"ECCENTRICITY":0.06407052,"INCLINATION":82.9572,"RA_OF_ASC_NODE":297.0051,"ARG_OF_PERICENTER":13.743,"MEAN_ANOMALY":348.0299,"EPHEMERIS_TYPE":0,"CLASSIFICATION_TYPE":"U","NORAD_CAT_ID":12138,"ELEMENT_SET_NO":999,"REV_AT_EPOCH":25589,"BSTAR":0.00028175975,"MEAN_MOTION_DOT":4.214e-5,"MEAN_MOTION_DDOT":0}]
